[{"OBJECT_NAME":"CALSPHERE 1","OBJECT_ID":"1964-063C","EPOCH":"2026-04-05T16:40:37.239744","MEAN_MOTION":13.76536316,"ECCENTRICITY":0.0026492,"INCLINATION":90.2193,"RA_OF_ASC_NODE":70.0695,"ARG_OF_PERICENTER":146.5689,"MEAN_ANOMALY":268.1647,"EPHEMERIS_TYPE":0,"CLASSIFICATION_TYPE":"U","NORAD_CAT_ID":900,"ELEMENT_SET_NO":999,"REV_AT_EPOCH":6145,"BSTAR":0.00086509,"MEAN_MOTION_DOT":8.58e-6,"MEAN_MOTION_DDOT":0},{"OBJECT_NAME":"CALSPHERE 2","OBJECT_ID":"1964-063E","EPOCH":"2026-04-05T11:46:43.066272","MEAN_MOTION":13.52894464,"ECCENTRICITY":0.00206258,"INCLINATION":90.2311,"RA_OF_ASC_NODE":74.0576,"ARG_OF_PERICENTER":79.558,"MEAN_ANOMALY":49.3815,"EPHEMERIS_TYPE":0,"CLASSIFICATION_TYPE":"U","NORAD_CAT_ID":902,"ELEMENT_SET_NO":999,"REV_AT_EPOCH":84643,"BSTAR":4.158685e-5,"MEAN_MOTION_DOT":3.7e-7,"MEAN_MOTION_DDOT":0},{"OBJECT_NAME":"LCS 1","OBJECT_ID":"1965-034C","EPOCH":"2026-04-05T20:55:06.501792","MEAN_MOTION":9.89309961,"ECCENTRICITY":0.0013338,"INCLINATION":32.1471,"RA_OF_ASC_NODE":348.7287,"ARG_OF_PERICENTER":226.106,"MEAN_ANOMALY":133.8336,"EPHEMERIS_TYPE":0,"CLASSIFICATION_TYPE":"U","NORAD_CAT_ID":1361,"ELEMENT_SET_NO":999,"REV_AT_EPOCH":20272,"BSTAR":0.00072897,"MEAN_MOTION_DOT":1.4e-7,"MEAN_MOTION_DDOT":0},{"OBJECT_NAME":"TEMPSAT 1","OBJECT_ID":"1965-065E","EPOCH":"2026-04-05T19:41:41.791776","MEAN_MOTION":13.33590882,"ECCENTRICITY":0.0071567,"INCLINATION":89.9988,"RA_OF_ASC_NODE":212.5806,"ARG_OF_PERICENTER":92.0588,"MEAN_ANOMALY":25.7226,"EPHEMERIS_TYPE":0,"CLASSIFICATION_TYPE":"U","NORAD_CAT_ID":1512,"ELEMENT_SET_NO":999,"REV_AT_EPOCH":95040,"BSTAR":8.3936e-5,"MEAN_MOTION_DOT":5.2e-7,"MEAN_MOTION_DDOT":0},{"OBJECT_NAME":"CALSPHERE 4A","OBJECT_ID":"1965-065H","EPOCH":"2026-04-05T19:35:17.304864","MEAN_MOTION":13.36264738,"ECCENTRICITY":0.0067936,"INCLINATION":89.8982,"RA_OF_ASC_NODE":123.2092,"ARG_OF_PERICENTER":308.9169,"MEAN_ANOMALY":110.5729,"EPHEMERIS_TYPE":0,"CLASSIFICATION_TYPE":"U","NORAD_CAT_ID":1520,"ELEMENT_SET_NO":999,"REV_AT_EPOCH":95304,"BSTAR":0.00020956,"MEAN_MOTION_DOT":1.18e-6,"MEAN_MOTION_DDOT":0},{"OBJECT_NAME":"OPS 5712 (P/L 160)","OBJECT_ID":"1967-053A","EPOCH":"2026-04-05T19:08:58.053696","MEAN_MOTION":14.76771699,"ECCENTRICITY":0.0002581,"INCLINATION":69.9176,"RA_OF_ASC_NODE":215.5795,"ARG_OF_PERICENTER":223.1736,"MEAN_ANOMALY":136.921,"EPHEMERIS_TYPE":0,"CLASSIFICATION_TYPE":"U","NORAD_CAT_ID":2826,"ELEMENT_SET_NO":999,"REV_AT_EPOCH":5554,"BSTAR":0.0016915,"MEAN_MOTION_DOT":0.0001182,"MEAN_MOTION_DDOT":0},{"OBJECT_NAME":"OPS 5712 (P/L 153)","OBJECT_ID":"1967-053H","EPOCH":"2026-04-05T20:51:49.147776","MEAN_MOTION":13.96817639,"ECCENTRICITY":0.0009904,"INCLINATION":69.9723,"RA_OF_ASC_NODE":270.3117,"ARG_OF_PERICENTER":283.9681,"MEAN_ANOMALY":76.0323,"EPHEMERIS_TYPE":0,"CLASSIFICATION_TYPE":"U","NORAD_CAT_ID":2874,"ELEMENT_SET_NO":999,"REV_AT_EPOCH":99668,"BSTAR":6.6555e-5,"MEAN_MOTION_DOT":3.9e-7,"MEAN_MOTION_DDOT":0},{"OBJECT_NAME":"RIGIDSPHERE 2 (LCS 4)","OBJECT_ID":"1971-067E","EPOCH":"2026-04-05T19:32:33.198432","MEAN_MOTION":14.37787028,"ECCENTRICITY":0.0062008,"INCLINATION":87.6276,"RA_OF_ASC_NODE":358.8978,"ARG_OF_PERICENTER":111.9767,"MEAN_ANOMALY":248.8037,"EPHEMERIS_TYPE":0,"CLASSIFICATION_TYPE":"U","NORAD_CAT_ID":5398,"ELEMENT_SET_NO":999,"REV_AT_EPOCH":86348,"BSTAR":0.00032192,"MEAN_MOTION_DOT":1.009e-5,"MEAN_MOTION_DDOT":0},{"OBJECT_NAME":"COSMOS 2493 (SKRL-756 1)","OBJECT_ID":"2013-078A","EPOCH":"2026-04-05T19:13:40.268064","MEAN_MOTION":15.01788111,"ECCENTRICITY":0.001413,"INCLINATION":82.4138,"RA_OF_ASC_NODE":331.9949,"ARG_OF_PERICENTER":124.7125,"MEAN_ANOMALY":235.5433,"EPHEMERIS_TYPE":0,"CLASSIFICATION_TYPE":"U","NORAD_CAT_ID":39490,"ELEMENT_SET_NO":999,"REV_AT_EPOCH":66709,"BSTAR":0.00033236,"MEAN_MOTION_DOT":4.365e-5,"MEAN_MOTION_DDOT":0},{"OBJECT_NAME":"COSMOS 2494 (SKRL-756 2)","OBJECT_ID":"2013-078B","EPOCH":"2026-04-05T19:04:33.432096","MEAN_MOTION":15.04440698,"ECCENTRICITY":0.0017746,"INCLINATION":82.4121,"RA_OF_ASC_NODE":321.6913,"ARG_OF_PERICENTER":91.1219,"MEAN_ANOMALY":269.204,"EPHEMERIS_TYPE":0,"CLASSIFICATION_TYPE":"U","NORAD_CAT_ID":39491,"ELEMENT_SET_NO":999,"REV_AT_EPOCH":66792,"BSTAR":0.00027634,"MEAN_MOTION_DOT":3.902e-5,"MEAN_MOTION_DDOT":0}]
