CALSPHERE 1             
1 00900U 64063C   26095.69487546  .00000858  00000+0  86509-3 0  9990
2 00900  90.2193  70.0695 0026492 146.5689 268.1647 13.76536316 61455
CALSPHERE 2             
1 00902U 64063E   26095.49077623  .00000037  00000+0  41587-4 0  9998
2 00902  90.2311  74.0576 0020625  79.5580  49.3815 13.52894464846438
LCS 1                   
1 01361U 65034C   26095.87160303  .00000014  00000+0  72897-3 0  9999
2 01361  32.1471 348.7287 0013338 226.1060 133.8336  9.89309961202729
TEMPSAT 1               
1 01512U 65065E   26095.82062259  .00000052  00000+0  83936-4 0  9996
2 01512  89.9988 212.5806 0071567  92.0588  25.7226 13.33590882950408
CALSPHERE 4A            
1 01520U 65065H   26095.81617251  .00000118  00000+0  20956-3 0  9997
2 01520  89.8982 123.2092 0067936 308.9169 110.5729 13.36264738953049
OPS 5712 (P/L 160)      
1 02826U 67053A   26095.79789414  .00011820  00000+0  16915-2 0  9995
2 02826  69.9176 215.5795 0002581 223.1736 136.9210 14.76771699 55540
OPS 5712 (P/L 153)      
1 02874U 67053H   26095.86931884  .00000039  00000+0  66555-4 0  9993
2 02874  69.9723 270.3117 0009904 283.9681  76.0323 13.96817639996681
RIGIDSPHERE 2 (LCS 4)   
1 05398U 71067E   26095.81427313  .00001009  00000+0  32192-3 0  9996
2 05398  87.6276 358.8978 0062008 111.9767 248.8037 14.37787028863487
COSMOS 2493 (SKRL-756 1)
1 39490U 13078A   26095.80116051  .00004365  00000+0  33236-3 0  9995
2 39490  82.4138 331.9949 0014130 124.7125 235.5433 15.01788111667098
COSMOS 2494 (SKRL-756 2)
1 39491U 13078B   26095.79483139  .00003902  00000+0  27634-3 0  9999
2 39491  82.4121 321.6913 0017746  91.1219 269.2040 15.04440698667923
